{
    "links": {
        "self": "http://www.neowsapp.com/rest/v1/neo/3330685?api_key=iIulBulltgU6a56xZRHN4H3l9WmuAYTsLGpBGhQ2"
    },
    "id": "3330685",
    "neo_reference_id": "3330685",
    "name": "(2006 HV30)",
    "designation": "2006 HV30",
    "nasa_jpl_url": "http://ssd.jpl.nasa.gov/sbdb.cgi?sstr=3330685",
    "absolute_magnitude_h": 22.7,
    "estimated_diameter": {
        "kilometers": {
            "estimated_diameter_min": 0.0766575574,
            "estimated_diameter_max": 0.1714115092
        },
        "meters": {
            "estimated_diameter_min": 76.6575573531,
            "estimated_diameter_max": 171.4115092306
        },
        "miles": {
            "estimated_diameter_min": 0.0476327831,
            "estimated_diameter_max": 0.1065101409
        },
        "feet": {
            "estimated_diameter_min": 251.5011804664,
            "estimated_diameter_max": 562.3737359442
        }
    },
    "is_potentially_hazardous_asteroid": false,
    "close_approach_data": [
        {
            "close_approach_date": "2006-04-21",
            "close_approach_date_full": "2006-Apr-21 15:38",
            "epoch_date_close_approach": 1145633880000,
            "relative_velocity": {
                "kilometers_per_second": "19.8127406647",
                "kilometers_per_hour": "71325.866393028",
                "miles_per_hour": "44319.1195929345"
            },
            "miss_distance": {
                "astronomical": "0.1433988914",
                "lunar": "55.7821687546",
                "kilometers": "21452168.713801318",
                "miles": "13329759.5295934684"
            },
            "orbiting_body": "Earth"
        }
    ],
    "orbital_data": {
        "orbit_id": "7",
        "orbit_determination_date": "2017-04-06 09:08:44",
        "first_observation_date": "2006-04-25",
        "last_observation_date": "2006-04-29",
        "data_arc_in_days": 4,
        "observations_used": 30,
        "orbit_uncertainty": "9",
        "minimum_orbit_intersection": ".143209",
        "jupiter_tisserand_invariant": "4.104",
        "epoch_osculation": "2453853.5",
        "eccentricity": ".3723801510153232",
        "semi_major_axis": "1.59532043811881",
        "inclination": "34.92020903690339",
        "ascending_node_longitude": "206.1167019259485",
        "orbital_period": "735.9873003285477",
        "perihelion_distance": "1.001254772454296",
        "perihelion_argument": "61.17793586527923",
        "aphelion_distance": "2.189386103783324",
        "perihelion_time": "2453899.561131498449",
        "mean_anomaly": "337.4697099636918",
        "mean_motion": ".4891388748682138",
        "equinox": "J2000",
        "orbit_class": {
            "orbit_class_type": "APO",
            "orbit_class_description": "Near-Earth asteroid orbits which cross the Earth’s orbit similar to that of 1862 Apollo",
            "orbit_class_range": "a (semi-major axis) > 1.0 AU; q (perihelion) < 1.017 AU"
        }
    },
    "is_sentry_object": false
}